ONEWEB-0385             
1 49311U 21090AJ  23302.86045180 -.00002726  00000+0 -67406-2 0  9995
2 49311  87.9158 105.8241 0002686  95.4967 264.6473 13.20745550104224
ONEWEB-0386             
1 49312U 21090AK  23302.72572222 -.00000277  00000+0 -71209-3 0  9999
2 49312  87.9149 105.8607 0001992  91.7849 268.3513 13.20771636104217
ONEWEB-0387             
1 49313U 21090AL  23302.48372793  .00000071  00000+0  14191-3 0  9991
2 49313  87.9157 105.9565 0001706 103.6007 256.5316 13.20768006102870
ONEWEB-0388             
1 49314U 21090AM  23302.82344706  .00000079  00000+0  16591-3 0  9997
2 49314  87.9178 136.3261 0001765  81.8869 278.2463 13.19724012100906
ONEWEB-0389             
1 50469U 21132A   23302.77018211 -.00001471  00000+0 -38237-2 0  9999
2 50469  87.9278 196.9396 0002380  96.2758 263.8644 13.17642073 92761
ONEWEB-0390             
1 50470U 21132B   23302.46854606  .00000083  00000+0  18100-3 0  9997
2 50470  87.9259 197.0087 0001340  81.5886 278.5397 13.17649027 91432
ONEWEB-0391             
1 50471U 21132C   23302.62253015  .00000059  00000+0  11967-3 0  9990
2 50471  87.9258 196.9488 0001781  83.4642 276.6692 13.17649028 91455
ONEWEB-0392             
1 50472U 21132D   23302.72799963  .00000261  00000+0  63871-3 0  9995
2 50472  87.9249 196.9620 0001633  86.8451 273.2867 13.17648208 92799
